{
    "links": {
        "self": "http://www.neowsapp.com/rest/v1/neo/3698528?api_key=iIulBulltgU6a56xZRHN4H3l9WmuAYTsLGpBGhQ2"
    },
    "id": "3698528",
    "neo_reference_id": "3698528",
    "name": "(2014 HB198)",
    "designation": "2014 HB198",
    "nasa_jpl_url": "http://ssd.jpl.nasa.gov/sbdb.cgi?sstr=3698528",
    "absolute_magnitude_h": 27.4,
    "estimated_diameter": {
        "kilometers": {
            "estimated_diameter_min": 0.0088014652,
            "estimated_diameter_max": 0.0196806745
        },
        "meters": {
            "estimated_diameter_min": 8.801465209,
            "estimated_diameter_max": 19.6806745089
        },
        "miles": {
            "estimated_diameter_min": 0.0054689752,
            "estimated_diameter_max": 0.0122290004
        },
        "feet": {
            "estimated_diameter_min": 28.8761991163,
            "estimated_diameter_max": 64.5691441559
        }
    },
    "is_potentially_hazardous_asteroid": false,
    "close_approach_data": [
        {
            "close_approach_date": "2014-04-26",
            "close_approach_date_full": "2014-Apr-26 03:02",
            "epoch_date_close_approach": 1398481320000,
            "relative_velocity": {
                "kilometers_per_second": "3.1686303161",
                "kilometers_per_hour": "11407.0691381069",
                "miles_per_hour": "7087.9091541754"
            },
            "miss_distance": {
                "astronomical": "0.0894537841",
                "lunar": "34.7975220149",
                "kilometers": "13382095.564799867",
                "miles": "8315248.6007654846"
            },
            "orbiting_body": "Earth"
        }
    ],
    "orbital_data": {
        "orbit_id": "6",
        "orbit_determination_date": "2020-09-12 06:50:02",
        "first_observation_date": "2014-04-24",
        "last_observation_date": "2014-04-26",
        "data_arc_in_days": 2,
        "observations_used": 31,
        "orbit_uncertainty": "9",
        "minimum_orbit_intersection": ".088948",
        "jupiter_tisserand_invariant": "4.652",
        "epoch_osculation": "2456772.5",
        "eccentricity": ".2354507354247534",
        "semi_major_axis": "1.43110963383803",
        "inclination": "4.582050939646268",
        "ascending_node_longitude": "38.23532966931724",
        "orbital_period": "625.3278696746019",
        "perihelion_distance": "1.094153818077416",
        "perihelion_argument": "171.9708713569952",
        "aphelion_distance": "1.768065449598643",
        "perihelion_time": "2456767.517917532362",
        "mean_anomaly": "2.868174881255458",
        "mean_motion": ".5756979937377988",
        "equinox": "J2000",
        "orbit_class": {
            "orbit_class_type": "AMO",
            "orbit_class_description": "Near-Earth asteroid orbits similar to that of 1221 Amor",
            "orbit_class_range": "1.017 AU < q (perihelion) < 1.3 AU"
        }
    },
    "is_sentry_object": false
}